{"type": "FeatureCollection", "features": [ {"type": "Feature", "properties": {"norad_id": 17070, "name": "POLAR BEAR", "group": "nnss", "lat": 80.30440310304097, "lon": 1.059863266116231, "alt_km": 944.0220582871025, "timestamp": "2025-12-24T11:33:00.285284+00:00", "meta": {"OBJECT_NAME": "POLAR BEAR", "OBJECT_ID": "1986-088A", "EPOCH": "2025-12-24T01:08:30.795360", "MEAN_MOTION": 13.75253077, "ECCENTRICITY": 0.0041289, "INCLINATION": 89.617, "RA_OF_ASC_NODE": 183.321, "ARG_OF_PERICENTER": 86.7219, "MEAN_ANOMALY": 27.0563, "EPHEMERIS_TYPE": 0, "CLASSIFICATION_TYPE": "U", "NORAD_CAT_ID": 17070, "ELEMENT_SET_NO": 999, "REV_AT_EPOCH": 96134, "BSTAR": 9.2847e-05, "MEAN_MOTION_DOT": 1.01e-06, "MEAN_MOTION_DDOT": 0}, "tle": {"line1": "1 17070U 86088A   25358.04757865  .00000101  00000+0  92847-4 0  9995", "line2": "2 17070  89.6170 183.3210 0041289  86.7219  27.0563 13.75253077961349"}}, "geometry": {"type": "Point", "coordinates": [1.059863266116231, 80.30440310304097]}}, {"type": "Feature", "properties": {"norad_id": 18361, "name": "OSCAR 27", "group": "nnss", "lat": 24.40999157743915, "lon": -100.11894509567749, "alt_km": 1026.2120298177597, "timestamp": "2025-12-24T11:33:00.285307+00:00", "meta": {"OBJECT_NAME": "OSCAR 27", "OBJECT_ID": "1987-080A", "EPOCH": "2025-12-23T22:16:33.536352", "MEAN_MOTION": 13.44908878, "ECCENTRICITY": 0.0103856, "INCLINATION": 90.3737, "RA_OF_ASC_NODE": 79.6907, "ARG_OF_PERICENTER": 191.5852, "MEAN_ANOMALY": 168.2905, "EPHEMERIS_TYPE": 0, "CLASSIFICATION_TYPE": "U", "NORAD_CAT_ID": 18361, "ELEMENT_SET_NO": 999, "REV_AT_EPOCH": 87707, "BSTAR": 0.00016473, "MEAN_MOTION_DOT": 1.08e-06, "MEAN_MOTION_DDOT": 0}, "tle": {"line1": "1 18361U 87080A   25357.92816593  .00000108  00000+0  16473-3 0  9999", "line2": "2 18361  90.3737  79.6907 0103856 191.5852 168.2905 13.44908878877074"}}, "geometry": {"type": "Point", "coordinates": [-100.11894509567749, 24.40999157743915]}}, {"type": "Feature", "properties": {"norad_id": 18362, "name": "OSCAR 29", "group": "nnss", "lat": 31.988131290900494, "lon": -99.59444071336922, "alt_km": 1057.5340121484633, "timestamp": "2025-12-24T11:33:00.285329+00:00", "meta": {"OBJECT_NAME": "OSCAR 29", "OBJECT_ID": "1987-080B", "EPOCH": "2025-12-23T11:38:40.001280", "MEAN_MOTION": 13.44450427, "ECCENTRICITY": 0.01046277, "INCLINATION": 90.375, "RA_OF_ASC_NODE": 80.1339, "ARG_OF_PERICENTER": 216.0464, "MEAN_ANOMALY": 154.8179, "EPHEMERIS_TYPE": 0, "CLASSIFICATION_TYPE": "U", "NORAD_CAT_ID": 18362, "ELEMENT_SET_NO": 999, "REV_AT_EPOCH": 87654, "BSTAR": 0.00017755719, "MEAN_MOTION_DOT": 1.15e-06, "MEAN_MOTION_DDOT": 0}, "tle": {"line1": "1 18362U 87080B   25357.48518520  .00000115  00000+0  17756-3 0  9993", "line2": "2 18362  90.3750  80.1339 0104627 216.0464 154.8179 13.44450427876542"}}, "geometry": {"type": "Point", "coordinates": [-99.59444071336922, 31.988131290900494]}}, {"type": "Feature", "properties": {"norad_id": 19070, "name": "OSCAR 23", "group": "nnss", "lat": -58.07109344407028, "lon": 17.270524551932226, "alt_km": 1291.4364497982588, "timestamp": "2025-12-24T11:33:00.285347+00:00", "meta": {"OBJECT_NAME": "OSCAR 23", "OBJECT_ID": "1988-033A", "EPOCH": "2025-12-24T01:16:30.251424", "MEAN_MOTION": 13.27788942, "ECCENTRICITY": 0.0190423, "INCLINATION": 90.3203, "RA_OF_ASC_NODE": 16.7429, "ARG_OF_PERICENTER": 148.5361, "MEAN_ANOMALY": 267.2441, "EPHEMERIS_TYPE": 0, "CLASSIFICATION_TYPE": "U", "NORAD_CAT_ID": 19070, "ELEMENT_SET_NO": 999, "REV_AT_EPOCH": 82403, "BSTAR": 0.00014553, "MEAN_MOTION_DOT": 8.2e-07, "MEAN_MOTION_DDOT": 0}, "tle": {"line1": "1 19070U 88033A   25358.05312791  .00000082  00000+0  14553-3 0  9990", "line2": "2 19070  90.3203  16.7429 0190423 148.5361 267.2441 13.27788942824036"}}, "geometry": {"type": "Point", "coordinates": [17.270524551932226, -58.07109344407028]}}, {"type": "Feature", "properties": {"norad_id": 19071, "name": "OSCAR 32", "group": "nnss", "lat": 56.22753497414723, "lon": 16.408773766283225, "alt_km": 1116.9287906094087, "timestamp": "2025-12-24T11:33:00.285359+00:00", "meta": {"OBJECT_NAME": "OSCAR 32", "OBJECT_ID": "1988-033B", "EPOCH": "2025-12-24T02:33:27.271296", "MEAN_MOTION": 13.27955636, "ECCENTRICITY": 0.0189182, "INCLINATION": 90.3208, "RA_OF_ASC_NODE": 16.8771, "ARG_OF_PERICENTER": 135.3137, "MEAN_ANOMALY": 292.8833, "EPHEMERIS_TYPE": 0, "CLASSIFICATION_TYPE": "U", "NORAD_CAT_ID": 19071, "ELEMENT_SET_NO": 999, "REV_AT_EPOCH": 82416, "BSTAR": 8.5632e-05, "MEAN_MOTION_DOT": 5.2e-07, "MEAN_MOTION_DDOT": 0}, "tle": {"line1": "1 19071U 88033B   25358.10656564  .00000052  00000+0  85632-4 0  9990", "line2": "2 19071  90.3208  16.8771 0189182 135.3137 292.8833 13.27955636824167"}}, "geometry": {"type": "Point", "coordinates": [16.408773766283225, 56.22753497414723]}}, {"type": "Feature", "properties": {"norad_id": 19223, "name": "NOVA 2", "group": "nnss", "lat": 44.024455743374034, "lon": 78.27086050359539, "alt_km": 1158.503134268879, "timestamp": "2025-12-24T11:33:00.285370+00:00", "meta": {"OBJECT_NAME": "NOVA 2", "OBJECT_ID": "1988-052A", "EPOCH": "2025-12-24T04:21:39.408768", "MEAN_MOTION": 13.22937071, "ECCENTRICITY": 0.0029605, "INCLINATION": 89.9864, "RA_OF_ASC_NODE": 78.2581, "ARG_OF_PERICENTER": 345.217, "MEAN_ANOMALY": 72.8014, "EPHEMERIS_TYPE": 0, "CLASSIFICATION_TYPE": "U", "NORAD_CAT_ID": 19223, "ELEMENT_SET_NO": 999, "REV_AT_EPOCH": 81099, "BSTAR": 0.00018842, "MEAN_MOTION_DOT": 8.8e-07, "MEAN_MOTION_DDOT": 0}, "tle": {"line1": "1 19223U 88052A   25358.18170612  .00000088  00000+0  18842-3 0  9990", "line2": "2 19223  89.9864  78.2581 0029605 345.2170  72.8014 13.22937071810992"}}, "geometry": {"type": "Point", "coordinates": [78.27086050359539, 44.024455743374034]}}, {"type": "Feature", "properties": {"norad_id": 19419, "name": "OSCAR 25", "group": "nnss", "lat": -51.49951208578698, "lon": -159.760056786734, "alt_km": 1039.3799290771321, "timestamp": "2025-12-24T11:33:00.285381+00:00", "meta": {"OBJECT_NAME": "OSCAR 25", "OBJECT_ID": "1988-074A", "EPOCH": "2025-12-24T03:35:44.715840", "MEAN_MOTION": 13.4262537, "ECCENTRICITY": 0.009513, "INCLINATION": 90.0336, "RA_OF_ASC_NODE": 20.2811, "ARG_OF_PERICENTER": 212.8485, "MEAN_ANOMALY": 217.2062, "EPHEMERIS_TYPE": 0, "CLASSIFICATION_TYPE": "U", "NORAD_CAT_ID": 19419, "ELEMENT_SET_NO": 999, "REV_AT_EPOCH": 82793, "BSTAR": 0.0001305, "MEAN_MOTION_DOT": 8.5e-07, "MEAN_MOTION_DDOT": 0}, "tle": {"line1": "1 19419U 88074A   25358.14982310  .00000085  00000+0  13050-3 0  9996", "line2": "2 19419  90.0336  20.2811 0095130 212.8485 217.2062 13.42625370827931"}}, "geometry": {"type": "Point", "coordinates": [-159.760056786734, -51.49951208578698]}}, {"type": "Feature", "properties": {"norad_id": 19420, "name": "OSCAR 31", "group": "nnss", "lat": 67.8371475521213, "lon": -159.27899148870944, "alt_km": 1097.2924587041325, "timestamp": "2025-12-24T11:33:00.285391+00:00", "meta": {"OBJECT_NAME": "OSCAR 31", "OBJECT_ID": "1988-074B", "EPOCH": "2025-12-24T02:20:50.517024", "MEAN_MOTION": 13.42586465, "ECCENTRICITY": 0.0093513, "INCLINATION": 90.0354, "RA_OF_ASC_NODE": 20.6327, "ARG_OF_PERICENTER": 207.1456, "MEAN_ANOMALY": 213.8261, "EPHEMERIS_TYPE": 0, "CLASSIFICATION_TYPE": "U", "NORAD_CAT_ID": 19420, "ELEMENT_SET_NO": 999, "REV_AT_EPOCH": 82803, "BSTAR": 0.00011, "MEAN_MOTION_DOT": 7.3e-07, "MEAN_MOTION_DDOT": 0}, "tle": {"line1": "1 19420U 88074B   25358.09780691  .00000073  00000+0  11000-3 0  9990", "line2": "2 19420  90.0354  20.6327 0093513 207.1456 213.8261 13.42586465828033"}}, "geometry": {"type": "Point", "coordinates": [-159.27899148870944, 67.8371475521213]}}]}